METOP-B                 
1 38771U 12049A   26064.22157406  .00000172  00000+0  98496-4 0  9996
2 38771  98.6651 117.7299 0001200 290.4699  69.6349 14.21443047698494
SARAL                   
1 39086U 13009A   26064.27153379  .00000183  00000+0  83295-4 0  9996
2 39086  98.5552 252.1429 0001225 194.8378 165.2771 14.32826775680724
METOP-C                 
1 43689U 18087A   26064.24611948  .00000167  00000+0  96028-4 0  9999
2 43689  98.6774 125.6944 0002181 106.0979 254.0438 14.21495340380064
OTB-3-GAZELLE           
1 54023U 22127A   26064.23248613  .00000115  00000+0  47478-4 0  9995
2 54023  98.3905  57.5461 0013915 138.3011 221.9242 14.42633176179370
EOS-6 (OCEANSAT-3)      
1 54361U 22158A   26064.30086479  .00000532  00000+0  15813-3 0  9992
2 54361  98.3489 163.9097 0000161  41.1374 318.9831 14.47001064172814
KINEIS-1B               
1 60079U 24114A   26064.30964278  .00001739  00000+0  23464-3 0  9992
2 60079  97.9927  88.9610 0003843  81.9988 278.1660 14.80403824 92038
KINEIS-1C               
1 60081U 24114C   26064.27575698  .00001570  00000+0  21254-3 0  9993
2 60081  97.9948  88.7517 0002072 122.9877 237.1534 14.80394894 92002
KINEIS-1D               
1 60082U 24114D   26064.26767171  .00001138  00000+0  17219-3 0  9998
2 60082  97.9971  85.5075 0002269 131.0865 229.0541 14.76104384 91790
KINEIS-1E               
1 60083U 24114E   26064.29270911  .00001494  00000+0  20250-3 0  9997
2 60083  97.9933  88.8501 0002491  92.2289 267.9208 14.80412752 92017
KINEIS-1A               
1 60084U 24114F   26064.32653225  .00001334  00000+0  18147-3 0  9990
2 60084  97.9940  89.0062 0004790 102.2425 257.9324 14.80427900 92029
KINEIS-3C               
1 61220U 24172A   26064.22747118  .00003303  00000+0  53039-3 0  9998
2 61220  98.0301 155.2831 0003505 109.4300 250.7287 14.72290050 77778
KINEIS-3D               
1 61221U 24172B   26064.22083047  .00003322  00000+0  53336-3 0  9994
2 61221  98.0302 155.2877 0002555 114.4028 245.7446 14.72293921 78050
KINEIS-3E               
1 61222U 24172C   26064.27172458  .00003194  00000+0  51334-3 0  9998
2 61222  98.0296 155.3333 0001626 108.8185 251.3199 14.72282585 78063
KINEIS-3A               
1 61223U 24172D   26064.25473313  .00003211  00000+0  51574-3 0  9997
2 61223  98.0290 155.4053 0003102  79.0630 281.0927 14.72310314 77489
KINEIS-3B               
1 61224U 24172E   26064.23771830  .00003214  00000+0  51673-3 0  9994
2 61224  98.0286 155.4217 0003605  71.6080 288.5519 14.72264064 78055
KINEIS-5C               
1 62081U 24219A   26064.28244306  .00001376  00000+0  22526-3 0  9998
2 62081  97.9724 225.8240 0001719  97.5275 262.6127 14.72352325 68467
KINEIS-5D               
1 62082U 24219B   26064.24844272  .00001907  00000+0  30918-3 0  9997
2 62082  97.9646 225.7734 0001114  77.2637 282.8695 14.72330430 68461
KINEIS-5E               
1 62083U 24219C   26064.19720104  .00001583  00000+0  25798-3 0  9999
2 62083  97.9637 225.9160 0002867 138.1810 221.9618 14.72325368 68466
KINEIS-5A               
1 62084U 24219D   26064.29682736  .00001089  00000+0  18055-3 0  9998
2 62084  97.9776 226.1127 0001544 219.4758 140.6337 14.72174003 68487
KINEIS-5B               
1 62085U 24219E   26064.27810329  .00002367  00000+0  33481-3 0  9998
2 62085  97.9935 228.7951 0001208 207.8374 152.2772 14.78051713 68659
KINEIS-2C               
1 62929U 25028B   26064.10580096  .00001602  00000+0  26128-3 0  9992
2 62929  98.0282 119.3297 0001273  40.3568 319.7734 14.72300312 57290
KINEIS-2D               
1 62930U 25028C   26064.16098436  .00002306  00000+0  34757-3 0  9991
2 62930  97.9416 118.5742 0003801 157.5713 202.5663 14.75321974 57376
KINEIS-2E               
1 62931U 25028D   26064.15751417  .00001868  00000+0  27414-3 0  9990
2 62931  97.9090 117.9654 0001850 114.4643 245.6760 14.76697457 57421
KINEIS-2A               
1 62932U 25028E   26064.13357407  .00001474  00000+0  24240-3 0  9997
2 62932  98.0719 119.6706 0003427 207.4651 152.6375 14.72085371 57299
KINEIS-2B               
1 62934U 25028G   26064.15731931  .00001685  00000+0  26945-3 0  9997
2 62934  97.9801 118.8655 0004850 119.2660 240.9033 14.73098810 57347
KINEIS-4E               
1 63300U 25056A   26064.33686584  .00003366  00000+0  53975-3 0  9990
2 63300  97.9937 190.7164 0000685 188.2206 171.8990 14.72340748 51845
KINEIS-4C               
1 63301U 25056B   26063.87355850  .00003115  00000+0  49971-3 0  9991
2 63301  97.9994 190.4249 0000639  46.7738 313.3523 14.72378333 51786
KINEIS-4D               
1 63302U 25056C   26063.87859797  .00003530  00000+0  56561-3 0  9995
2 63302  97.9976 190.4081 0000471 318.1531  41.9640 14.72350255 51789
KINEIS-4A               
1 63303U 25056D   26064.31954538 -.00000965  00000+0 -14493-3 0  9994
2 63303  97.9934 190.7682 0001675 261.8137  98.2880 14.72292610 51845
KINEIS-4B               
1 63304U 25056E   26064.30261887  .00002072  00000+0  33576-3 0  9994
2 63304  97.9936 190.7968 0002217 203.9274 156.1831 14.72280375 51831
